ONEWEB-0020             
1 45133U 20008C   25191.49910685  .00000105  00000+0  26488-3 0  9992
2 45133  87.8827 104.4041 0001851  70.8258 289.3069 13.10376426264379
ONEWEB-0021             
1 45134U 20008D   25190.82684161  .00000598  00000+0  16772-2 0  9996
2 45134  87.8828 104.5716 0002020  81.1196 279.0160 13.10372538263812
ONEWEB-0023             
1 45136U 20008F   25191.14305511  .00000503  00000+0  14058-2 0  9994
2 45136  87.8823 104.4927 0001689  77.6174 282.5143 13.10371305264045
ONEWEB-0024             
1 45137U 20008G   25191.49744532  .00000043  00000+0  87979-4 0  9996
2 45137  87.8819 104.3712 0002009  76.8346 283.3005 13.10376575264243
ONEWEB-0025             
1 45138U 20008H   25191.51487237 -.00000606  00000+0 -17706-2 0  9992
2 45138  87.8830 104.3696 0002017  95.0927 265.0431 13.10396044264574
ONEWEB-0026             
1 45139U 20008J   25191.42531779 -.00000349  00000+0 -10195-2 0  9993
2 45139  87.8835  89.1879 0001969  72.2523 287.8820 13.11416423267197
ONEWEB-0028             
1 45140U 20008K   25191.45838916  .00000124  00000+0  31364-3 0  9992
2 45140  87.8830  89.2043 0001704  98.4432 261.6889 13.11419657263838
ONEWEB-0032             
1 45141U 20008L   25190.84342921  .00000116  00000+0  29648-3 0  9994
2 45141  87.8815 104.5548 0001861  82.4688 277.6651 13.10369398263461
